ONEWEB-0389             
1 50469U 21132A   23059.54553739  .00000069  00000+0  14589-3 0  9997
2 50469  87.9072 245.1415 0002333  96.4792 263.6605 13.17542063 59441
ONEWEB-0389             
1 50469U 21132A   23059.54553739  .00000069  00000+0  14589-3 0  9997
2 50469  87.9072 245.1415 0002333  96.4792 263.6605 13.17542063 60735
ONEWEB-0389             
1 50469U 21132A   23059.92524940  .00000021  00000+0  20485-4 0  9992
2 50469  87.9073 245.0659 0002353  96.2535 263.8864 13.17541989 59496
ONEWEB-0389             
1 50469U 21132A   23060.76061421  .00000149  00000+0  35129-3 0  9997
2 50469  87.9074 244.8996 0002358  95.6964 264.4437 13.17542845 60893
ONEWEB-0389             
1 50469U 21132A   23060.91250011 -.00000049  00000+0 -15896-3 0  9999
2 50469  87.9075 244.8694 0002344  95.6892 264.4507 13.17541933 59628
ONEWEB-0389             
1 50469U 21132A   23061.74786519  .00000033  00000+0  51535-4 0  9990
2 50469  87.9075 244.7030 0002332  94.9728 265.1670 13.17542507 59737
ONEWEB-0389             
1 50469U 21132A   23062.43134560  .00000121  00000+0  27900-3 0  9996
2 50469  87.9076 244.5669 0002319  94.5588 265.5808 13.17542867 61110
ONEWEB-0389             
1 50469U 21132A   23062.88699979 -.00000001  00000+0 -34749-4 0  9994
2 50469  87.9078 244.4761 0002299  94.2383 265.9011 13.17542832 59884
